COSMOS 2426 (717)       
1 29671U 06062B   19131.11966674  .00000017  00000-0  10000-3 0  9996
2 29671  65.1412 281.5451 0017999 159.7797  67.1025  2.13102998 96306
COSMOS 2433 (720)       
1 32275U 07052A   19130.72444934 -.00000050  00000-0  10000-3 0  9994
2 32275  65.8369  42.3903 0003392 289.5013 330.6469  2.13104439 89807
COSMOS 2432 (719)       
1 32276U 07052B   19130.85916293 -.00000051  00000-0  10000-3 0  9992
2 32276  65.8488  42.4684 0012495 333.6724 341.0026  2.13103948 89800
COSMOS 2434 (721)       
1 32393U 07065A   19130.54784558  .00000019  00000-0  00000-0 0  9998
2 32393  64.7401 280.2800 0005291  99.3933 272.7370  2.13103030 88510
COSMOS 2436 (723)       
1 32395U 07065C   19131.49137347  .00000013  00000-0  10000-3 0  9991
2 32395  64.7492 280.3016 0016174   6.3232  61.7519  2.13104412 88464
COSMOS 2456 (730)       
1 36111U 09070A   19131.18696271  .00000078  00000-0  00000+0 0  9997
2 36111  64.1964 159.8911 0006133 303.8709  11.5584  2.13102951 73188
COSMOS 2457 (733)       
1 36112U 09070B   19131.40416807  .00000080  00000-0  00000+0 0  9991
2 36112  64.1797 159.7879 0005259 192.0668  55.2544  2.13101607 73194
COSMOS 2459 (731)       
1 36400U 10007A   19130.38144466 -.00000049  00000-0  10000-3 0  9999
2 36400  65.7425  41.4246 0027969 350.3717 222.9068  2.13102287 71524
COSMOS 2461 (735)       
1 36401U 10007B   19131.30271550 -.00000056  00000-0  10000-3 0  9996
2 36401  65.7359  41.3651 0007454  51.4299  59.1462  2.13102329 71548
COSMOS 2460 (732)       
1 36402U 10007C   19130.44579652 -.00000049  00000-0  10000-3 0  9997
2 36402  65.7250  41.3585 0001923 347.5981 225.5542  2.13101579 71529
COSMOS 2464 (736)       
1 37139U 10041C   19130.98478877  .00000016  00000-0  00000+0 0  9997
2 37139  64.3397 279.9050 0025554  16.0245 197.8695  2.13100693 67607
COSMOS 2474 (742)       
1 37829U 11055A   19130.85360116  .00000076  00000-0  00000+0 0  9997
2 37829  64.5193 160.7583 0010588 251.9619  24.3421  2.13101964 59179
COSMOS 2476 (744)       
1 37867U 11064A   19131.13489906  .00000077  00000-0  00000+0 0  9991
2 37867  64.4986 160.8027 0020646 243.8096 294.4292  2.13102047 58537
COSMOS 2477 (745)       
1 37868U 11064B   19131.52612071  .00000080  00000-0  00000+0 0  9990
2 37868  64.5073 160.8424 0018324 245.3113  51.7602  2.13101807 58491
COSMOS 2475 (743)       
1 37869U 11064C   19131.41716175  .00000079  00000-0  00000+0 0  9997
2 37869  64.5147 160.8435 0022792 266.0702 264.4486  2.13102065 58506
COSMOS 2485 (747)       
1 39155U 13019A   19130.51618071  .00000075  00000-0  00000+0 0  9991
2 39155  64.6685 161.0037 0021070 239.3022 229.0146  2.13102001 46991
COSMOS 2492 (754)       
1 39620U 14012A   19130.72046811 -.00000052  00000-0  10000-3 0  9993
2 39620  65.6161  41.1881 0015703 329.3672 330.7397  2.13103392 39949
COSMOS 2500 (755)       
1 40001U 14032A   19130.27412244 -.00000049  00000-0  00000-0 0  9999
2 40001  65.5570  41.1477 0004811 220.2430 318.9520  2.13102811 38150
COSMOS 2501 (702K)      
1 40315U 14075A   19131.28275718  .00000013  00000-0  00000+0 0  9998
2 40315  64.0606 280.9907 0015231 203.0656 188.2269  2.13098614 34586
COSMOS 2514 (751)       
1 41330U 16008A   19131.38724674 -.00000057  00000-0  00000+0 0  9994
2 41330  65.3601  41.0832 0008548 226.1413 268.6150  2.13103289 25347
COSMOS 2516 (753)       
1 41554U 16032A   19130.94782410  .00000016  00000-0  00000+0 0  9996
2 41554  64.2861 280.9596 0011134 211.5223 196.7350  2.13101707 22943
COSMOS 2522 (752)       
1 42939U 17055A   19131.09092589  .00000016  00000-0  00000+0 0  9998
2 42939  64.5152 281.0163 0005616 240.9967 143.5397  2.13101966 12709
COSMOS 2527 (756)       
1 43508U 18053A   19130.85946505  .00000077  00000-0  00000+0 0  9996
2 43508  64.8333 160.7550 0008915 242.9747 355.1041  2.13102722  6983
COSMOS 2529 (757)       
1 43687U 18086A   19130.63730178  .00000019  00000-0  00000+0 0  9999
2 43687  64.7304 281.0420 0008061 274.0293  78.2108  2.13102017  3997
